0 DELTA 1 DEB
1 21601U 75052HV  13280.41198640  .00000203  00000-0  91589-3 0  5161
2 21601 099.8022 247.9163 0548317 002.0850 151.4426 12.48879311 17439
0 DELTA 1 DEB
1 21601U 75052HV  13282.41471367  .00000238  00000-0  10539-2 0  5177
2 21601 099.8024 249.5693 0548269 357.9410 155.6276 12.48880777 17681
0 DELTA 1 DEB
1 21601U 75052HV  13286.42116728  .00000205  00000-0  92762-3 0  5183
2 21601 099.8031 252.8761 0548107 349.6561 168.5124 12.48883219 18183
0 DELTA 1 DEB
1 21601U 75052HV  13291.38770758  .00000233  00000-0  10377-2 0  5196
2 21601 099.8046 256.9753 0547866 339.3779 177.9717 12.48885832 18807
0 DELTA 1 DEB
1 21601U 75052HV  13293.39016229  .00000262  00000-0  11519-2 0  5208
2 21601 099.8050 258.6283 0547759 335.2406 180.9717 12.48886789 19056
